# From MPEC 2022-WQ9
P/2022 R5 (PANSTARRS),e,15.2924,115.0433,240.5420,3.069865,0.1832421,0.19474887,201.4844,05/30.0/2025,2000,g 16.0,4.0
# From MPEC 2025-J92
C/2022 R6 (PANSTARRS),h,08/26.1705/2025,57.0192,150.7856,319.9129,1.005017,6.565562,2000,5.0,4.0
# From MPEC 2023-HD1
P/2022 S1 (PANSTARRS),e,34.5674,136.0902,262.8454,6.408846,0.0607483,0.50764107,61.6568,05/30.0/2025,2000,g 15.1,4.0
# From MPEC 2022-VC5
C/2022 S3 (PANSTARRS),h,01/21.6308/2023,78.4847,157.2539,267.9855,1.000385,0.838740,2000,17.0,4.0
# From MPEC 2024-PC5
C/2022 S4 (Lemmon),e,101.2159,220.1784,268.5620,1408,0.0000187,0.99803823,0.0000,07/18.7799/2024,2000,g  8.0,4.0
# From MPEC 2023-HD1
C/2022 S5 (PANSTARRS),e,136.5126,214.8651,232.8006,20.51802,0.0106048,0.89384773,9.6952,05/30.0/2025,2000,g 16.3,4.0
# From MPEC 2024-O39
C/2022 T1 (Lemmon),h,02/17.4405/2024,22.5422,236.9159,324.2934,1.000358,3.444346,2000,9.0,4.0
# From MPEC 2025-J92
C/2022 U1 (Leonard),h,03/26.0842/2024,128.1481,72.5277,78.6121,1.000186,4.202260,2000,8.5,4.0
# From MPEC 2023-VM5
C/2022 U2 (ATLAS),e,48.2494,304.4064,148.0065,98.23369,0.0010123,0.98646538,0.0000,01/14.2727/2023,2000,g 16.0,4.0
# From MPC182880
C/2022 U3 (Bok),h,07/28.6620/2024,33.6618,272.7883,189.1319,1.000223,4.826786,2000,7.5,4.0
# From MPEC 2023-W26
C/2022 U4 (Bok),e,52.0523,132.9162,88.9866,2880,0.0000064,0.99899394,0.0000,08/03.6409/2023,2000,g 10.5,4.0
# From MPEC 2024-H50
C/2022 V2 (Lemmon),e,98.9020,332.8559,168.9542,36.65005,0.0044421,0.94367905,2.5549,05/30.0/2025,2000,g 12.0,4.0
# From MPEC 2023-CD7
P/2022 W1 (Rankin),e,13.4641,38.8289,17.9279,6.975300,0.0535007,0.51649076,52.7979,05/30.0/2025,2000,g 12.5,4.0
# From MPEC 2024-EF7
C/2022 W2 (ATLAS),e,63.5029,320.4372,123.3132,342.8986,0.0001552,0.99088719,0.0000,03/08.7443/2023,2000,g 11.5,4.0
# From MPEC 2024-C04
C/2022 W3 (Leonard),e,103.5807,132.3016,116.5134,278.0493,0.0002126,0.99497586,0.0000,06/22.8188/2023,2000,g 13.0,4.0
# From MPEC 2023-M14
C/2022 Y1 (Hogan),e,18.8557,285.8775,174.8780,12.61357,0.0220012,0.76529974,20.1164,05/30.0/2025,2000,g  9.0,4.0
# From MPEC 2023-TM6
C/2022 Y2 (Lemmon),e,165.8906,216.3685,105.4701,19.72225,0.0112530,0.87111067,8.9978,05/30.0/2025,2000,g 13.5,4.0
# From MPEC 2024-GJ3
C/2023 A1 (Leonard),e,94.7411,318.2677,159.2625,221.2451,0.0002995,0.99170157,0.0000,03/18.5940/2023,2000,g 14.5,4.0
# From MPEC 2023-J95
C/2023 A2 (SWAN),e,94.7064,94.5080,142.4966,408.1483,0.0001195,0.99768439,0.0000,01/20.3650/2023,2000,g 13.5,4.0
# From MPEC 2025-J92
C/2023 A3 (Tsuchinshan-ATLAS),h,09/27.7432/2024,139.1113,21.5723,308.5063,1.000119,0.391501,2000,6.5,3.2
# From MPEC 2024-F34
P/2023 B1 (PANSTARRS),e,14.5884,78.5600,81.7025,7.065595,0.0524784,0.13091425,39.7428,05/30.0/2025,2000,g  5.5,4.0
# From MPEC 2023-XP6
C/2023 B2 (ATLAS),e,40.7669,218.0920,317.3631,596.3294,0.0000677,0.99708095,0.0000,03/10.5996/2023,2000,g 14.5,4.0
# From MPEC 2023-F81
P/2023 B3 (PANSTARRS),e,9.1567,153.9865,240.3763,4.550249,0.1015433,0.12239220,175.3709,05/30.0/2025,2000,g 10.5,4.0
# From MPEC 2025-J92
C/2023 C2 (ATLAS),e,48.3216,301.0045,357.4476,2457,0.0000081,0.99903593,0.0000,11/16.7878/2024,2000,g  7.0,4.0
# From MPEC 2024-D33
C/2023 E1 (ATLAS),e,38.2810,164.5182,105.9517,19.25694,0.0116633,0.94664201,8.1542,05/30.0/2025,2000,g 15.5,4.0
# From MPEC 2023-N01
C/2023 F1 (PANSTARRS),e,131.6939,25.3075,216.7330,246.0172,0.0002554,0.99304851,0.0000,06/28.1077/2023,2000,g 16.0,4.0
# From MPEC 2025-J92
C/2023 F3 (ATLAS),h,02/02.6259/2025,145.9636,109.4652,265.5325,1.003440,5.190780,2000,6.0,4.0
# From MPEC 2025-J92
C/2023 H1 (PANSTARRS),e,21.7827,292.6467,333.7527,760.1818,0.0000470,0.99414929,0.0000,11/28.6442/2024,2000,g  8.5,4.0
# From MPEC 2024-GJ3
C/2023 H2 (Lemmon),e,113.7481,217.0708,150.6854,247.1897,0.0002536,0.99637837,0.0000,10/29.1605/2023,2000,g 14.0,4.0
# From MPEC 2023-R20
C/2023 H3 (PANSTARRS),e,2.4889,55.0905,193.2686,13.61600,0.0196169,0.61575496,9.1537,05/30.0/2025,2000,g 10.0,4.0
# From MPEC 2023-SQ0
A/2023 H4,e,76.5696,230.8265,65.0181,142.3252,0.0005805,0.98507604,0.0000,08/08.7180/2023,2000,g 18.0,2.0
# From MPEC 2025-J92
C/2023 H5 (Lemmon),h,06/30.2723/2025,97.8554,159.4785,60.0987,1.000465,4.312582,2000,7.0,4.0
# From MPEC 2024-UA9
P/2023 JN16 (Lemmon),e,3.7022,11.8733,353.1985,2.695810,0.2226743,0.14691333,33.4570,05/30.0/2025,2000,g 14.0,4.0
# From MPEC 2024-GJ3
C/2023 K1 (ATLAS),e,137.9976,223.6981,337.4202,626.5049,0.0000629,0.99674584,0.0000,09/07.5853/2023,2000,g 13.0,4.0
# From MPEC 2023-N01
P/2023 M1 (PANSTARRS),e,12.2889,216.8598,79.6992,6.841415,0.0550789,0.58683332,29.3388,05/30.0/2025,2000,g 13.5,4.0
# From MPEC 2024-TD8
P/2023 M2 (PANSTARRS),e,19.7276,83.2499,243.4617,5.580051,0.0747733,0.37001316,50.2869,05/30.0/2025,2000,g 12.5,4.0
# From MPEC 2024-TP3
P/2023 M4 (ATLAS),e,7.5919,296.2844,320.5252,5.446577,0.0775387,0.27893141,88.5729,05/30.0/2025,2000,g  7.5,4.0
# From MPEC 2024-MB8
C/2023 P1 (Nishimura),e,132.4779,66.8318,116.2536,56.44784,0.0023240,0.99602395,0.0000,09/17.6228/2023,2000,g 10.0,4.0
# From MPEC 2025-J92
C/2023 Q1 (PANSTARRS),h,12/01.1282/2024,36.6447,7.1243,84.4180,1.005001,2.575796,2000,10.0,4.0
# From MPEC 2024-N80
C/2023 Q2 (PANSTARRS),e,104.0618,92.6796,171.6924,345.0278,0.0001538,0.99069889,0.0000,06/23.9519/2024,2000,g 11.5,4.0
# From MPEC 2025-J92
C/2023 R1 (PANSTARRS),h,04/13.4876/2026,149.3169,62.5621,144.2741,1.002189,3.569805,2000,6.0,4.0
# From MPEC 2024-L77
C/2023 R2 (PANSTARRS),h,08/12.1582/2024,30.6892,188.9004,337.3125,1.000280,0.905107,2000,10.5,4.0
# From MPEC 2023-UR6
A/2023 R3,e,12.0810,347.3419,86.9405,716.2687,0.0000514,0.99810320,0.0000,12/18.1813/2023,2000,g 20.0,2.0
# From MPEC 2024-YC7
C/2023 RN3 (ATLAS),e,10.3517,207.0647,130.6057,10.16968,0.0303909,0.49061868,26.1512,05/30.0/2025,2000,g  7.5,4.0
# From MPEC 2025-HB3
C/2023 RS61,e,19.9445,347.0197,119.4018,11.89899,0.0240126,0.32780603,329.2385,05/30.0/2025,2000,g  6.8,4.0
# From MPEC 2025-J92
P/2023 S1 (PANSTARRS),e,9.1578,317.2904,180.3052,3.843914,0.1307807,0.31847924,12.4015,05/30.0/2025,2000,g 11.5,4.0
# From MPEC 2023-XP6
C/2023 S2 (ATLAS),e,19.6655,229.4808,78.9352,167.4971,0.0004547,0.99366355,0.0000,10/15.4136/2023,2000,g 15.0,4.0
# From MPEC 2024-P23
C/2023 S3 (Lemmon),e,140.4937,233.8241,281.5349,28.43149,0.0065014,0.97082936,0.0000,01/19.6479/2024,2000,g 16.0,4.0
# From MPEC 2024-BE0
P/2023 T1 (PANSTARRS),e,6.6123,249.5766,202.8620,4.225747,0.1134616,0.33323169,42.2241,05/30.0/2025,2000,g 14.0,4.0
# From MPEC 2024-GJ3
C/2023 T2 (Borisov),e,48.5915,317.5276,111.2145,224.1358,0.0002937,0.99109371,0.0000,12/22.7523/2023,2000,g 14.5,4.0
# From MPEC 2025-J92
C/2023 T3 (Fuls),e,27.2215,246.0018,302.8473,851.7801,0.0000396,0.99583422,0.0000,01/25.3514/2025,2000,g  8.5,4.0
# From MPEC 2024-VB7
C/2023 TD22 (Lemmon),e,170.4899,5.5634,32.5407,48.35800,0.0029309,0.95126541,0.7494,05/30.0/2025,2000,g 12.5,4.0
# From MPEC 2025-J08
C/2023 U1 (Fuls),e,108.1458,305.8044,255.6433,2568,0.0000076,0.99806372,0.0000,10/12.9107/2024,2000,g  8.0,4.0
# From MPEC 2025-J72
C/2023 V1 (Lemmon),h,07/13.0434/2025,102.0139,15.0416,103.3149,1.000362,5.092567,2000,8.5,4.0
# From MPEC 2025-J72
P/2023 V2 (PANSTARRS),e,9.8884,95.4745,330.5195,7.220412,0.0507997,0.57008757,24.4506,05/30.0/2025,2000,g 13.5,4.0
# From MPEC 2024-A43
C/2023 V3 (PANSTARRS),e,40.7035,91.2924,291.8567,12.90194,0.0212677,0.65216068,14.1364,05/30.0/2025,2000,g 11.5,4.0
# From MPEC 2024-UQ8
C/2023 V4 (Camarasa-Duszanowicz),h,05/30.3888/2024,67.1260,66.3269,50.8690,1.001151,1.121891,2000,12.0,4.0
# From MPEC 2024-GJ3
C/2023 V5 (Leonard),h,12/13.9043/2023,73.5524,31.5159,56.9680,1.009421,0.846312,2000,21.5,4.0
# From MPEC 2025-A40
P/2023 V6 (PANSTARRS),e,3.9720,189.6644,192.5621,5.296719,0.0808525,0.17558460,73.5252,05/30.0/2025,2000,g 11.5,4.0
# From MPEC 2024-GJ3
C/2023 X1 (Leonard),e,110.5882,136.9944,321.4680,155.9498,0.0005061,0.99390171,0.0000,10/17.9815/2023,2000,g 13.5,3.2
# From MPEC 2025-J08
C/2023 X2 (Lemmon),h,12/28.1401/2025,76.9833,66.3039,64.7607,1.000143,5.088856,2000,8.5,3.2
# From MPEC 2024-A43
P/2023 X3 (PANSTARRS),e,4.4833,62.0135,40.8645,4.245772,0.1126598,0.28618822,45.3868,05/30.0/2025,2000,g 15.5,4.0
# From MPEC 2025-J72
C/2023 X4 (Hogan),e,11.5936,28.7693,100.5886,9.921156,0.0315399,0.63125548,11.6685,05/30.0/2025,2000,g 12.0,4.0
# From MPEC 2024-DA2
C/2023 X7 (PANSTARRS),h,05/15.2082/2025,69.0858,119.1983,354.3985,1.002635,4.820334,2000,9.0,4.0
# From MPEC 2024-JU4
P/2023 Y1 (Gibbs),e,6.3840,78.8560,51.4768,3.750296,0.1357081,0.44535606,74.2443,05/30.0/2025,2000,g 17.0,4.0
# From MPEC 2025-A40
P/2023 Y2 (Gibbs),e,6.9927,79.2289,16.8989,3.747204,0.1358761,0.39227688,89.5289,05/30.0/2025,2000,g 15.5,4.0
# From MPEC 2025-J92
C/2024 A1 (ATLAS),h,06/13.7029/2025,94.4614,112.1358,353.3104,1.002338,3.875293,2000,7.0,4.0
# From MPC182881
C/2024 A2 (ATLAS),e,119.1150,78.1656,295.4988,32.30637,0.0053675,0.94182300,2.1265,05/30.0/2025,2000,g 12.5,4.0
# From MPEC 2025-J92
C/2024 B1 (Lemmon),h,10/07.7172/2024,70.9030,79.1884,66.2163,1.001012,1.633795,2000,13.0,4.0
# From MPEC 2025-A40
C/2024 B2 (Lemmon),e,99.8670,294.3848,130.3396,2120,0.0000101,0.99807626,0.0000,10/05.9012/2023,2000,g 11.5,4.0
# From MPEC 2025-J92
C/2024 C1 (PANSTARRS),e,14.2269,83.8096,94.4875,10.58111,0.0286356,0.58294858,7.7875,05/30.0/2025,2000,g 11.5,4.0
# From MPEC 2024-JU4
C/2024 C2 (PANSTARRS),e,27.2844,66.4452,87.5693,16.22527,0.0150805,0.44584201,1.2047,05/30.0/2025,2000,g  6.0,4.0
# From MPEC 2025-HB5
C/2024 C3 (PANSTARRS),e,22.4553,359.7064,159.6849,11.66661,0.0247336,0.42459979,14.0568,05/30.0/2025,2000,g  9.0,4.0
# From MPEC 2024-Q20
C/2024 C4 (ATLAS),e,79.2832,220.6727,321.5004,83.49090,0.0012919,0.98238632,0.0000,01/30.1905/2024,2000,g 14.5,4.0
# From MPEC 2025-HB9
C/2024 D1 (Lemmon),e,132.4502,179.6625,125.7729,8901,0.0000012,0.99924798,0.0000,12/03.3788/2027,2000,g  7.3,4.0
# From MPEC 2025-J92
C/2024 E1 (Wierzchos),h,01/20.7599/2026,75.2389,108.0804,243.6340,1.000068,0.565957,2000,7.0,4.0
# From MPEC 2024-JU4
